{"type": "FeatureCollection", "features": [ {"type": "Feature", "properties": {"norad_id": 38755, "name": "SPOT 6", "group": "resource", "lat": -15.239007721175632, "lon": -133.77789962713766, "alt_km": 702.5555359029531, "timestamp": "2025-12-09T14:52:25.822802+00:00", "meta": {"OBJECT_NAME": "SPOT 6", "OBJECT_ID": "2012-047A", "EPOCH": "2025-12-09T05:44:58.072992", "MEAN_MOTION": 14.58598104, "ECCENTRICITY": 0.00010807, "INCLINATION": 98.1574, "RA_OF_ASC_NODE": 48.0884, "ARG_OF_PERICENTER": 97.706, "MEAN_ANOMALY": 262.4262, "EPHEMERIS_TYPE": 0, "CLASSIFICATION_TYPE": "U", "NORAD_CAT_ID": 38755, "ELEMENT_SET_NO": 999, "REV_AT_EPOCH": 70536, "BSTAR": 0.00013655888, "MEAN_MOTION_DOT": 5.9e-06, "MEAN_MOTION_DDOT": 0}, "tle": {"line1": "1 38755U 12047A   25343.23956103  .00000590  00000+0  13656-3 0  9995", "line2": "2 38755  98.1574  48.0884 0001080  97.7060 262.4262 14.58598104705364"}}, "geometry": {"type": "Point", "coordinates": [-133.77789962713766, -15.239007721175632]}}, {"type": "Feature", "properties": {"norad_id": 39019, "name": "PLEIADES 1B", "group": "resource", "lat": 80.71545262248225, "lon": -62.05767776188441, "alt_km": 689.5934512035228, "timestamp": "2025-12-09T14:52:25.822812+00:00", "meta": {"OBJECT_NAME": "PLEIADES 1B", "OBJECT_ID": "2012-068A", "EPOCH": "2025-12-09T07:51:25.151616", "MEAN_MOTION": 14.58547701, "ECCENTRICITY": 0.00012319, "INCLINATION": 98.1796, "RA_OF_ASC_NODE": 56.033, "ARG_OF_PERICENTER": 81.5924, "MEAN_ANOMALY": 278.5415, "EPHEMERIS_TYPE": 0, "CLASSIFICATION_TYPE": "U", "NORAD_CAT_ID": 39019, "ELEMENT_SET_NO": 999, "REV_AT_EPOCH": 69317, "BSTAR": 0.00013594133, "MEAN_MOTION_DOT": 5.86e-06, "MEAN_MOTION_DDOT": 0}, "tle": {"line1": "1 39019U 12068A   25343.32737444  .00000586  00000+0  13594-3 0  9993", "line2": "2 39019  98.1796  56.0330 0001231  81.5924 278.5415 14.58547701693177"}}, "geometry": {"type": "Point", "coordinates": [-62.05767776188441, 80.71545262248225]}}, {"type": "Feature", "properties": {"norad_id": 39030, "name": "GOKTURK 2", "group": "resource", "lat": 57.00104516773452, "lon": 17.433967607531116, "alt_km": 638.2097219597945, "timestamp": "2025-12-09T14:52:25.822823+00:00", "meta": {"OBJECT_NAME": "GOKTURK 2", "OBJECT_ID": "2012-073A", "EPOCH": "2025-12-09T07:48:39.703392", "MEAN_MOTION": 14.75283098, "ECCENTRICITY": 9.13e-05, "INCLINATION": 97.689, "RA_OF_ASC_NODE": 185.1465, "ARG_OF_PERICENTER": 99.1137, "MEAN_ANOMALY": 261.0176, "EPHEMERIS_TYPE": 0, "CLASSIFICATION_TYPE": "U", "NORAD_CAT_ID": 39030, "ELEMENT_SET_NO": 999, "REV_AT_EPOCH": 69651, "BSTAR": 0.00014078499, "MEAN_MOTION_DOT": 9.06e-06, "MEAN_MOTION_DDOT": 0}, "tle": {"line1": "1 39030U 12073A   25343.32545953  .00000906  00000+0  14078-3 0  9998", "line2": "2 39030  97.6890 185.1465 0000913  99.1137 261.0176 14.75283098696516"}}, "geometry": {"type": "Point", "coordinates": [17.433967607531116, 57.00104516773452]}}, {"type": "Feature", "properties": {"norad_id": 39084, "name": "LANDSAT 8", "group": "resource", "lat": -76.67902324220385, "lon": 89.29787442640641, "alt_km": 710.6107511188093, "timestamp": "2025-12-09T14:52:25.822833+00:00", "meta": {"OBJECT_NAME": "LANDSAT 8", "OBJECT_ID": "2013-008A", "EPOCH": "2025-12-09T06:59:52.092960", "MEAN_MOTION": 14.57109262, "ECCENTRICITY": 0.00011161, "INCLINATION": 98.2076, "RA_OF_ASC_NODE": 51.4159, "ARG_OF_PERICENTER": 87.0153, "MEAN_ANOMALY": 273.1174, "EPHEMERIS_TYPE": 0, "CLASSIFICATION_TYPE": "U", "NORAD_CAT_ID": 39084, "ELEMENT_SET_NO": 999, "REV_AT_EPOCH": 67024, "BSTAR": 0.000188218, "MEAN_MOTION_DOT": 8.03e-06, "MEAN_MOTION_DDOT": 0}, "tle": {"line1": "1 39084U 13008A   25343.29157515  .00000803  00000+0  18822-3 0  9992", "line2": "2 39084  98.2076  51.4159 0001116  87.0153 273.1174 14.57109262670247"}}, "geometry": {"type": "Point", "coordinates": [89.29787442640641, -76.67902324220385]}}, {"type": "Feature", "properties": {"norad_id": 39086, "name": "SARAL", "group": "resource", "lat": 0.5061954215645211, "lon": -12.33307262753982, "alt_km": 784.5604991441542, "timestamp": "2025-12-09T14:52:25.822844+00:00", "meta": {"OBJECT_NAME": "SARAL", "OBJECT_ID": "2013-009A", "EPOCH": "2025-12-09T07:20:07.266624", "MEAN_MOTION": 14.32755388, "ECCENTRICITY": 0.00027981, "INCLINATION": 98.5504, "RA_OF_ASC_NODE": 167.2809, "ARG_OF_PERICENTER": 115.221, "MEAN_ANOMALY": 244.9264, "EPHEMERIS_TYPE": 0, "CLASSIFICATION_TYPE": "U", "NORAD_CAT_ID": 39086, "ELEMENT_SET_NO": 999, "REV_AT_EPOCH": 66841, "BSTAR": 0.00010988052, "MEAN_MOTION_DOT": 2.56e-06, "MEAN_MOTION_DDOT": 0}, "tle": {"line1": "1 39086U 13009A   25343.30563966  .00000256  00000+0  10988-3 0  9995", "line2": "2 39086  98.5504 167.2809 0002798 115.2210 244.9264 14.32755388668412"}}, "geometry": {"type": "Point", "coordinates": [-12.33307262753982, 0.5061954215645211]}}, {"type": "Feature", "properties": {"norad_id": 39150, "name": "GAOFEN-1", "group": "resource", "lat": -6.340677941872966, "lon": -126.55364651997385, "alt_km": 633.5925749484732, "timestamp": "2025-12-09T14:52:25.822854+00:00", "meta": {"OBJECT_NAME": "GAOFEN-1", "OBJECT_ID": "2013-018A", "EPOCH": "2025-12-09T07:31:40.946304", "MEAN_MOTION": 14.76526158, "ECCENTRICITY": 0.00179902, "INCLINATION": 97.9328, "RA_OF_ASC_NODE": 54.0335, "ARG_OF_PERICENTER": 153.6105, "MEAN_ANOMALY": 206.6025, "EPHEMERIS_TYPE": 0, "CLASSIFICATION_TYPE": "U", "NORAD_CAT_ID": 39150, "ELEMENT_SET_NO": 999, "REV_AT_EPOCH": 68022, "BSTAR": 0.00023870749, "MEAN_MOTION_DOT": 1.617e-05, "MEAN_MOTION_DDOT": 0}, "tle": {"line1": "1 39150U 13018A   25343.31366836  .00001617  00000+0  23871-3 0  9992", "line2": "2 39150  97.9328  54.0335 0017990 153.6105 206.6025 14.76526158680229"}}, "geometry": {"type": "Point", "coordinates": [-126.55364651997385, -6.340677941872966]}}, {"type": "Feature", "properties": {"norad_id": 39160, "name": "VNREDSAT 1", "group": "resource", "lat": 18.578465049151703, "lon": 36.316095372849944, "alt_km": 677.1576877194166, "timestamp": "2025-12-09T14:52:25.822864+00:00", "meta": {"OBJECT_NAME": "VNREDSAT 1", "OBJECT_ID": "2013-021B", "EPOCH": "2025-12-09T06:35:30.945408", "MEAN_MOTION": 14.64915338, "ECCENTRICITY": 0.00013427, "INCLINATION": 97.9374, "RA_OF_ASC_NODE": 38.671, "ARG_OF_PERICENTER": 79.0396, "MEAN_ANOMALY": 281.0958, "EPHEMERIS_TYPE": 0, "CLASSIFICATION_TYPE": "U", "NORAD_CAT_ID": 39160, "ELEMENT_SET_NO": 999, "REV_AT_EPOCH": 67248, "BSTAR": 0.00022625059, "MEAN_MOTION_DOT": 1.164e-05, "MEAN_MOTION_DDOT": 0}, "tle": {"line1": "1 39160U 13021B   25343.27466372  .00001164  00000+0  22625-3 0  9991", "line2": "2 39160  97.9374  38.6710 0001342  79.0396 281.0958 14.64915338672483"}}, "geometry": {"type": "Point", "coordinates": [36.316095372849944, 18.578465049151703]}}, {"type": "Feature", "properties": {"norad_id": 39227, "name": "ARIRANG-5 (KOMPSAT-5)", "group": "resource", "lat": 13.205549536799923, "lon": 166.16961304073118, "alt_km": 552.4690739409871, "timestamp": "2025-12-09T14:52:25.822874+00:00", "meta": {"OBJECT_NAME": "ARIRANG-5 (KOMPSAT-5)", "OBJECT_ID": "2013-042A", "EPOCH": "2025-12-09T06:50:01.053024", "MEAN_MOTION": 15.04479204, "ECCENTRICITY": 0.00040214, "INCLINATION": 97.6144, "RA_OF_ASC_NODE": 167.6384, "ARG_OF_PERICENTER": 63.7447, "MEAN_ANOMALY": 296.4192, "EPHEMERIS_TYPE": 0, "CLASSIFICATION_TYPE": "U", "NORAD_CAT_ID": 39227, "ELEMENT_SET_NO": 999, "REV_AT_EPOCH": 67530, "BSTAR": 3.195707e-05, "MEAN_MOTION_DOT": 3.87e-06, "MEAN_MOTION_DDOT": 0}, "tle": {"line1": "1 39227U 13042A   25343.28473441  .00000387  00000+0  31957-4 0  9999", "line2": "2 39227  97.6144 167.6384 0004021  63.7447 296.4192 15.04479204675309"}}, "geometry": {"type": "Point", "coordinates": [166.16961304073118, 13.205549536799923]}}, {"type": "Feature", "properties": {"norad_id": 39418, "name": "SKYSAT-A", "group": "resource", "lat": -52.17828005609835, "lon": 43.575308344039136, "alt_km": 531.0061172072255, "timestamp": "2025-12-09T14:52:25.822885+00:00", "meta": {"OBJECT_NAME": "SKYSAT-A", "OBJECT_ID": "2013-066C", "EPOCH": "2025-12-09T02:23:48.584832", "MEAN_MOTION": 15.11559541, "ECCENTRICITY": 0.00207075, "INCLINATION": 97.4109, "RA_OF_ASC_NODE": 33.4188, "ARG_OF_PERICENTER": 250.2261, "MEAN_ANOMALY": 109.6736, "EPHEMERIS_TYPE": 0, "CLASSIFICATION_TYPE": "U", "NORAD_CAT_ID": 39418, "ELEMENT_SET_NO": 999, "REV_AT_EPOCH": 65975, "BSTAR": 0.00030622168, "MEAN_MOTION_DOT": 5.156e-05, "MEAN_MOTION_DDOT": 0}, "tle": {"line1": "1 39418U 13066C   25343.09986788  .00005156  00000+0  30622-3 0  9995", "line2": "2 39418  97.4109  33.4188 0020707 250.2261 109.6736 15.11559541659759"}}, "geometry": {"type": "Point", "coordinates": [43.575308344039136, -52.17828005609835]}}, {"type": "Feature", "properties": {"norad_id": 39419, "name": "DUBAISAT-2", "group": "resource", "lat": 53.61100332813813, "lon": 164.343847591958, "alt_km": 543.1563548941112, "timestamp": "2025-12-09T14:52:25.822895+00:00", "meta": {"OBJECT_NAME": "DUBAISAT-2", "OBJECT_ID": "2013-066D", "EPOCH": "2025-12-09T06:21:27.658944", "MEAN_MOTION": 15.08305855, "ECCENTRICITY": 0.00110319, "INCLINATION": 97.4447, "RA_OF_ASC_NODE": 333.7798, "ARG_OF_PERICENTER": 333.7557, "MEAN_ANOMALY": 26.3111, "EPHEMERIS_TYPE": 0, "CLASSIFICATION_TYPE": "U", "NORAD_CAT_ID": 39419, "ELEMENT_SET_NO": 999, "REV_AT_EPOCH": 65774, "BSTAR": 0.0006116512, "MEAN_MOTION_DOT": 9.446e-05, "MEAN_MOTION_DDOT": 0}, "tle": {"line1": "1 39419U 13066D   25343.26490346  .00009446  00000+0  61165-3 0  9997", "line2": "2 39419  97.4447 333.7798 0011031 333.7557  26.3111 15.08305855657745"}}, "geometry": {"type": "Point", "coordinates": [164.343847591958, 53.61100332813813]}}]}